start=new Date('2022-03-30T00:00:00.000Z').valueOf();
sats=[{"DECAY_DATE":null,"INCLINATION":"53.0535","ECCENTRICITY":"0.00022070","LAUNCH_DATE":"2021-01-20","PERIOD":"95.592","MEAN_MOTION":"15.06396138","CLASSIFICATION_TYPE":"U","CENTER_NAME":"EARTH","SITE":"AFETR","RCS_SIZE":"LARGE","GP_ID":"200019506","RA_OF_ASC_NODE":"49.6220","COUNTRY_CODE":"US","EPHEMERIS_TYPE":"0","TIME_SYSTEM":"UTC","NORAD_CAT_ID":"47397","APOAPSIS":"548.754","MEAN_ANOMALY":"309.1055","FILE":"3379484","MEAN_ELEMENT_THEORY":"SGP4","OBJECT_TYPE":"PAYLOAD","OBJECT_NAME":"STARLINK-2119","MEAN_MOTION_DDOT":"0.0000000000000","BSTAR":"0.00002569300000","TLE_LINE1":"1 47397U 21005BA  22088.88831271  .00000101  00000-0  25693-4 0  9997","EPOCH":"2022-03-29T21:19:10.218144","MEAN_MOTION_DOT":"0.00000101","TLE_LINE2":"2 47397  53.0535  49.6220 0002207  51.0130 309.1055 15.06396138 65889","ELEMENT_SET_NO":"999","ARG_OF_PERICENTER":"51.0130","SEMIMAJOR_AXIS":"6925.360","PERIAPSIS":"545.697","REV_AT_EPOCH":"6588","REF_FRAME":"TEME","OBJECT_ID":"2021-005BA"},{"EPOCH":"2022-03-29T19:05:08.533824","TLE_LINE1":"1 47398U 21005BB  22088.79523766 -.00001269  00000-0 -66286-4 0  9996","BSTAR":"-0.00006628600000","MEAN_MOTION_DDOT":"0.0000000000000","MEAN_MOTION_DOT":"-0.00001269","SEMIMAJOR_AXIS":"6925.357","ARG_OF_PERICENTER":"61.1046","TLE_LINE2":"2 47398  53.0569  20.0410 0001630  61.1046 299.0107 15.06397314 66285","ELEMENT_SET_NO":"999","OBJECT_ID":"2021-005BB","REV_AT_EPOCH":"6628","REF_FRAME":"TEME","PERIAPSIS":"546.093","PERIOD":"95.592","MEAN_MOTION":"15.06397314","LAUNCH_DATE":"2021-01-20","DECAY_DATE":null,"ECCENTRICITY":"0.00016300","INCLINATION":"53.0569","GP_ID":"200020258","RA_OF_ASC_NODE":"20.0410","RCS_SIZE":"LARGE","SITE":"AFETR","CLASSIFICATION_TYPE":"U","CENTER_NAME":"EARTH","TIME_SYSTEM":"UTC","NORAD_CAT_ID":"47398","APOAPSIS":"548.351","EPHEMERIS_TYPE":"0","COUNTRY_CODE":"US","OBJECT_NAME":"STARLINK-2120","OBJECT_TYPE":"PAYLOAD","FILE":"3379484","MEAN_ELEMENT_THEORY":"SGP4","MEAN_ANOMALY":"299.0107"},{"MEAN_MOTION_DOT":"-0.00002750","TLE_LINE1":"1 47399U 21005BC  22088.87447459 -.00002750  00000-0 -16583-3 0  9990","EPOCH":"2022-03-29T20:59:14.604576","MEAN_MOTION_DDOT":"0.0000000000000","BSTAR":"-0.00016583000000","OBJECT_ID":"2021-005BC","PERIAPSIS":"546.051","REV_AT_EPOCH":"6615","REF_FRAME":"TEME","SEMIMAJOR_AXIS":"6925.362","TLE_LINE2":"2 47399  53.0575  29.6984 0001699  56.0232 304.0918 15.06395561 66154","ELEMENT_SET_NO":"999","ARG_OF_PERICENTER":"56.0232","GP_ID":"199995800","RA_OF_ASC_NODE":"29.6984","CENTER_NAME":"EARTH","CLASSIFICATION_TYPE":"U","SITE":"AFETR","RCS_SIZE":"LARGE","PERIOD":"95.592","MEAN_MOTION":"15.06395561","DECAY_DATE":null,"ECCENTRICITY":"0.00016990","INCLINATION":"53.0575","LAUNCH_DATE":"2021-01-20","OBJECT_TYPE":"PAYLOAD","OBJECT_NAME":"STARLINK-2121","MEAN_ANOMALY":"304.0918","FILE":"3379407","MEAN_ELEMENT_THEORY":"SGP4","TIME_SYSTEM":"UTC","NORAD_CAT_ID":"47399","APOAPSIS":"548.404","COUNTRY_CODE":"US","EPHEMERIS_TYPE":"0"},{"CENTER_NAME":"EARTH","CLASSIFICATION_TYPE":"U","RCS_SIZE":"LARGE","SITE":"AFETR","GP_ID":"200018757","RA_OF_ASC_NODE":"9.4549","DECAY_DATE":null,"ECCENTRICITY":"0.00017400","INCLINATION":"53.0561","LAUNCH_DATE":"2021-01-20","PERIOD":"95.592","MEAN_MOTION":"15.06395744","MEAN_ANOMALY":"301.9199","FILE":"3379484","MEAN_ELEMENT_THEORY":"SGP4","OBJECT_TYPE":"PAYLOAD","OBJECT_NAME":"STARLINK-2122","COUNTRY_CODE":"US","EPHEMERIS_TYPE":"0","TIME_SYSTEM":"UTC","NORAD_CAT_ID":"47400","APOAPSIS":"548.432","MEAN_MOTION_DOT":"-0.00000087","MEAN_MOTION_DDOT":"0.0000000000000","BSTAR":"0.00001307900000","TLE_LINE1":"1 47400U 21005BD  22088.92423388 -.00000087  00000-0  13079-4 0  9992","EPOCH":"2022-03-29T22:10:53.807232","PERIAPSIS":"546.022","REV_AT_EPOCH":"6644","REF_FRAME":"TEME","OBJECT_ID":"2021-005BD","TLE_LINE2":"2 47400  53.0561   9.4549 0001740  58.1960 301.9199 15.06395744 66445","ELEMENT_SET_NO":"999","ARG_OF_PERICENTER":"58.1960","SEMIMAJOR_AXIS":"6925.362"},{"BSTAR":"-0.00001782500000","MEAN_MOTION_DDOT":"0.0000000000000","EPOCH":"2022-03-29T19:26:23.796096","TLE_LINE1":"1 47401U 21005BE  22088.80999764 -.00000547  00000-0 -17825-4 0  9991","MEAN_MOTION_DOT":"-0.00000547","ARG_OF_PERICENTER":"58.0641","ELEMENT_SET_NO":"999","TLE_LINE2":"2 47401  53.0572  19.9915 0002020  58.0641 302.0544 15.06393731 66909","SEMIMAJOR_AXIS":"6925.368","REF_FRAME":"TEME","REV_AT_EPOCH":"6690","PERIAPSIS":"545.834","OBJECT_ID":"2021-005BE","LAUNCH_DATE":"2021-01-20","ECCENTRICITY":"0.00020200","INCLINATION":"53.0572","DECAY_DATE":null,"MEAN_MOTION":"15.06393731","PERIOD":"95.593","SITE":"AFETR","RCS_SIZE":"LARGE","CLASSIFICATION_TYPE":"U","CENTER_NAME":"EARTH","RA_OF_ASC_NODE":"19.9915","GP_ID":"199995816","EPHEMERIS_TYPE":"0","COUNTRY_CODE":"US","APOAPSIS":"548.632","NORAD_CAT_ID":"47401","TIME_SYSTEM":"UTC","MEAN_ELEMENT_THEORY":"SGP4","FILE":"3379408","MEAN_ANOMALY":"302.0544","OBJECT_NAME":"STARLINK-2123","OBJECT_TYPE":"PAYLOAD"},{"EPHEMERIS_TYPE":"0","COUNTRY_CODE":"US","TIME_SYSTEM":"UTC","APOAPSIS":"548.415","NORAD_CAT_ID":"47402","FILE":"3379323","MEAN_ELEMENT_THEORY":"SGP4","MEAN_ANOMALY":"312.2939","OBJECT_NAME":"STARLINK-2124","OBJECT_TYPE":"PAYLOAD","LAUNCH_DATE":"2021-01-20","DECAY_DATE":null,"ECCENTRICITY":"0.00017480","INCLINATION":"53.0562","PERIOD":"95.592","MEAN_MOTION":"15.06402850","RCS_SIZE":"LARGE","SITE":"AFETR","CLASSIFICATION_TYPE":"U","CENTER_NAME":"EARTH","GP_ID":"199990881","RA_OF_ASC_NODE":"22.5738","ARG_OF_PERICENTER":"47.8198","TLE_LINE2":"2 47402  53.0562  22.5738 0001748  47.8198 312.2939 15.06402850 66208","ELEMENT_SET_NO":"999","SEMIMAJOR_AXIS":"6925.340","REV_AT_EPOCH":"6620","REF_FRAME":"TEME","PERIAPSIS":"545.994","OBJECT_ID":"2021-005BF","BSTAR":"0.00008308700000","MEAN_MOTION_DDOT":"0.0000000000000","EPOCH":"2022-03-29T05:33:03.081024","TLE_LINE1":"1 47402U 21005BF  22088.23128566  .00000956  00000-0  83087-4 0  9998","MEAN_MOTION_DOT":"0.00000956"},{"MEAN_MOTION":"15.06389426","PERIOD":"95.593","LAUNCH_DATE":"2021-01-20","ECCENTRICITY":"0.00017440","INCLINATION":"53.0562","DECAY_DATE":null,"RA_OF_ASC_NODE":"20.1692","GP_ID":"199996307","SITE":"AFETR","RCS_SIZE":"LARGE","CENTER_NAME":"EARTH","CLASSIFICATION_TYPE":"U","APOAPSIS":"548.454","NORAD_CAT_ID":"47403","TIME_SYSTEM":"UTC","EPHEMERIS_TYPE":"0","COUNTRY_CODE":"US","OBJECT_NAME":"STARLINK-2127","OBJECT_TYPE":"PAYLOAD","MEAN_ELEMENT_THEORY":"SGP4","FILE":"3379407","MEAN_ANOMALY":"288.5600","EPOCH":"2022-03-29T18:28:00.509376","TLE_LINE1":"1 47403U 21005BG  22088.76945034 -.00000492  00000-0 -14137-4 0  9991","MEAN_MOTION_DDOT":"0.0000000000000","BSTAR":"-0.00001413700000","MEAN_MOTION_DOT":"-0.00000492","SEMIMAJOR_AXIS":"6925.381","ARG_OF_PERICENTER":"71.5578","ELEMENT_SET_NO":"999","TLE_LINE2":"2 47403  53.0562  20.1692 0001744  71.5578 288.5600 15.06389426 66892","OBJECT_ID":"2021-005BG","REF_FRAME":"TEME","REV_AT_EPOCH":"6689","PERIAPSIS":"546.038"},{"EPOCH":"2022-03-29T21:33:47.125440","TLE_LINE1":"1 47404U 21005BH  22088.89846210 -.00001380  00000-0 -73756-4 0  9991","BSTAR":"-0.00007375600000","MEAN_MOTION_DDOT":"0.0000000000000","MEAN_MOTION_DOT":"-0.00001380","SEMIMAJOR_AXIS":"6925.389","ARG_OF_PERICENTER":"52.8453","TLE_LINE2":"2 47404  53.0563  19.5887 0001926  52.8453 307.2712 15.06386949 66304","ELEMENT_SET_NO":"999","OBJECT_ID":"2021-005BH","REV_AT_EPOCH":"6630","REF_FRAME":"TEME","PERIAPSIS":"545.920","PERIOD":"95.593","MEAN_MOTION":"15.06386949","LAUNCH_DATE":"2021-01-20","DECAY_DATE":null,"INCLINATION":"53.0563","ECCENTRICITY":"0.00019260","GP_ID":"200019257","RA_OF_ASC_NODE":"19.5887","RCS_SIZE":"LARGE","SITE":"AFETR","CENTER_NAME":"EARTH","CLASSIFICATION_TYPE":"U","TIME_SYSTEM":"UTC","APOAPSIS":"548.587","NORAD_CAT_ID":"47404","EPHEMERIS_TYPE":"0","COUNTRY_CODE":"US","OBJECT_NAME":"STARLINK-2128","OBJECT_TYPE":"PAYLOAD","FILE":"3379484","MEAN_ELEMENT_THEORY":"SGP4","MEAN_ANOMALY":"307.2712"},{"PERIOD":"95.592","MEAN_MOTION":"15.06398250","LAUNCH_DATE":"2021-01-20","DECAY_DATE":null,"INCLINATION":"53.0556","ECCENTRICITY":"0.00018210","GP_ID":"199991145","RA_OF_ASC_NODE":"51.7398","RCS_SIZE":"LARGE","SITE":"AFETR","CLASSIFICATION_TYPE":"U","CENTER_NAME":"EARTH","TIME_SYSTEM":"UTC","APOAPSIS":"548.480","NORAD_CAT_ID":"47405","EPHEMERIS_TYPE":"0","COUNTRY_CODE":"US","OBJECT_NAME":"STARLINK-2130","OBJECT_TYPE":"PAYLOAD","FILE":"3379323","MEAN_ELEMENT_THEORY":"SGP4","MEAN_ANOMALY":"301.2470","EPOCH":"2022-03-29T09:59:47.369472","TLE_LINE1":"1 47405U 21005BJ  22088.41652048  .00000545  00000-0  55462-4 0  9998","BSTAR":"0.00005546200000","MEAN_MOTION_DDOT":"0.0000000000000","MEAN_MOTION_DOT":"0.00000545","SEMIMAJOR_AXIS":"6925.354","ARG_OF_PERICENTER":"58.8697","TLE_LINE2":"2 47405  53.0556  51.7398 0001821  58.8697 301.2470 15.06398250 65809","ELEMENT_SET_NO":"999","OBJECT_ID":"2021-005BJ","REV_AT_EPOCH":"6580","REF_FRAME":"TEME","PERIAPSIS":"545.958"},{"SEMIMAJOR_AXIS":"6925.355","TLE_LINE2":"2 47406  53.0566  19.8315 0001869  70.2318 289.8872 15.06397954 66904","ELEMENT_SET_NO":"999","ARG_OF_PERICENTER":"70.2318","OBJECT_ID":"2021-005BK","PERIAPSIS":"545.925","REV_AT_EPOCH":"6690","REF_FRAME":"TEME","TLE_LINE1":"1 47406U 21005BK  22088.84316683  .00000228  00000-0  34235-4 0  9991","EPOCH":"2022-03-29T20:14:09.614112","MEAN_MOTION_DDOT":"0.0000000000000","BSTAR":"0.00003423500000","MEAN_MOTION_DOT":"0.00000228","TIME_SYSTEM":"UTC","NORAD_CAT_ID":"47406","APOAPSIS":"548.514","COUNTRY_CODE":"US","EPHEMERIS_TYPE":"0","OBJECT_TYPE":"PAYLOAD","OBJECT_NAME":"STARLINK-2133","MEAN_ANOMALY":"289.8872","FILE":"3379407","MEAN_ELEMENT_THEORY":"SGP4","PERIOD":"95.592","MEAN_MOTION":"15.06397954","DECAY_DATE":null,"INCLINATION":"53.0566","ECCENTRICITY":"0.00018690","LAUNCH_DATE":"2021-01-20","GP_ID":"199996302","RA_OF_ASC_NODE":"19.8315","CENTER_NAME":"EARTH","CLASSIFICATION_TYPE":"U","SITE":"AFETR","RCS_SIZE":"LARGE"}];
